NORAD_CAT_ID,OBJECT_NAME,OBJECT_TYPE,EPOCH,MEAN_MOTION,ECCENTRICITY,INCLINATION,RA_OF_ASC_NODE,ARG_OF_PERICENTER,MEAN_ANOMALY,BSTAR,MEAN_MOTION_DOT,MEAN_MOTION_DDOT,TLE_LINE0,TLE_LINE1,TLE_LINE2,SEMIMAJOR_AXIS,PERIOD,APOGEE,PERIGEE,DECAYED
53819.0,STARLINK-4738,PAYLOAD,2023-11-06 22:54:10,15.08797783,0.0001313,53.2162,176.8793,93.0077,267.1065,-0.0013366,-0.00021472,0.0,0 STARLINK-4738,1 53819U 22114B   23310.95428338 -.00021472  00000-0 -13366-2 0  9996,2 53819  53.2162 176.8793 0001313  93.0077 267.1065 15.08797783 63407,6918.009,95.44,540.783,538.966,0.0
53819.0,STARLINK-4738,PAYLOAD,2023-11-07 08:26:29,15.08795562,0.0001282,53.2161,175.0953,95.7759,264.3379,-0.00071806,-0.00011684,0.0,0 STARLINK-4738,1 53819U 22114B   23311.35173535 -.00011684  00000-0 -71806-3 0  9995,2 53819  53.2161 175.0953 0001282  95.7759 264.3379 15.08795562 63462,6918.016,95.44,540.768,538.994,0.0
53819.0,STARLINK-4738,PAYLOAD,2023-11-07 21:09:36,15.0880038,0.0001303,53.2151,172.7195,89.14,270.9741,0.00023913,3.516e-05,0.0,0 STARLINK-4738,1 53819U 22114B   23311.88167208  .00003516  00000-0  23913-3 0  9992,2 53819  53.2151 172.7195 0001303  89.1400 270.9741 15.08800380 63547,6918.001,95.44,540.768,538.965,0.0
53819.0,STARLINK-4738,PAYLOAD,2023-11-08 19:25:00,15.08844302,9.66e-05,53.2167,168.5573,81.2783,278.8318,0.0010233,0.00016037,0.0,0 STARLINK-4738,1 53819U 22114B   23312.80903328  .00016037  00000-0  10233-2 0  9998,2 53819  53.2167 168.5573 0000966  81.2783 278.8318 15.08844302 63682,6917.867,95.437,540.401,539.064,0.0
53819.0,STARLINK-4738,PAYLOAD,2023-11-08 21:00:21,15.08934263,5.95e-05,53.2165,168.261,102.0153,258.0906,0.0031997,0.00051137,0.0,0 STARLINK-4738,1 53819U 22114B   23312.87524328  .00051137  00000-0  31997-2 0  9994,2 53819  53.2165 168.2610 0000595 102.0153 258.0906 15.08934263 64231,6917.592,95.432,539.869,539.046,0.0
53819.0,STARLINK-4738,PAYLOAD,2023-11-09 00:11:09,15.08843742,5.72e-05,53.2164,167.6659,91.0116,269.0942,0.00080409,0.00012534,0.0,0 STARLINK-4738,1 53819U 22114B   23313.00774945  .00012534  00000-0  80409-3 0  9993,2 53819  53.2164 167.6659 0000572  91.0116 269.0942 15.08843742 64252,6917.869,95.437,540.13,539.338,0.0
53819.0,STARLINK-4738,PAYLOAD,2023-11-09 19:15:46,15.08859396,0.000124,53.2164,164.0972,76.1802,283.9328,0.0004224,6.444e-05,0.0,0 STARLINK-4738,1 53819U 22114B   23313.80262022  .00006444  00000-0  42240-3 0  9993,2 53819  53.2164 164.0972 0001240  76.1802 283.9328 15.08859396 63838,6917.821,95.436,540.544,538.828,0.0
53819.0,STARLINK-4738,PAYLOAD,2023-11-09 20:51:09,15.08866158,0.0001391,53.2169,163.7952,94.9078,265.2072,0.00053635,8.264e-05,0.0,0 STARLINK-4738,1 53819U 22114B   23313.86885764  .00008264  00000-0  53635-3 0  9995,2 53819  53.2169 163.7952 0001391  94.9078 265.2072 15.08866158 64381,6917.8,95.436,540.628,538.703,0.0
53819.0,STARLINK-4738,PAYLOAD,2023-11-10 00:01:55,15.08865459,0.0001463,53.2167,163.1982,96.3635,263.7524,0.00022815,3.347e-05,0.0,0 STARLINK-4738,1 53819U 22114B   23314.00133434  .00003347  00000-0  22815-3 0  9995,2 53819  53.2167 163.1982 0001463  96.3635 263.7524 15.08865459 64402,6917.803,95.436,540.68,538.655,0.0
53819.0,STARLINK-4738,PAYLOAD,2023-11-10 20:41:55,15.08854518,0.0001309,53.2162,159.3319,84.0406,276.0735,8.7003e-07,-2.74e-06,0.0,0 STARLINK-4738,1 53819U 22114B   23314.86245102 -.00000274  00000-0  87003-6 0  9995,2 53819  53.2162 159.3319 0001309  84.0406 276.0735 15.08854518 63995,6917.836,95.437,540.607,538.795,0.0
53819.0,STARLINK-4738,PAYLOAD,2023-11-10 23:52:42,15.08851637,0.0001353,53.2164,158.7384,84.9897,275.125,-5.0805e-05,-1.097e-05,0.0,0 STARLINK-4738,1 53819U 22114B   23314.99493083 -.00001097  00000-0 -50805-4 0  9995,2 53819  53.2164 158.7384 0001353  84.9897 275.1250 15.08851637 64558,6917.845,95.437,540.646,538.774,0.0
53819.0,STARLINK-4738,PAYLOAD,2023-11-11 20:32:42,15.08857966,0.0001286,53.2169,154.874,88.9694,271.1446,7.3887e-05,8.89e-06,0.0,0 STARLINK-4738,1 53819U 22114B   23315.85604242  .00000889  00000-0  73887-4 0  9993,2 53819  53.2169 154.8740 0001286  88.9694 271.1446 15.08857966 64688,6917.825,95.436,540.58,538.801,0.0
53819.0,STARLINK-4738,PAYLOAD,2023-11-11 23:43:28,15.08856992,0.000129,53.2168,154.2794,89.765,270.349,5.7646e-05,6.3e-06,0.0,0 STARLINK-4738,1 53819U 22114B   23315.98852127  .00000630  00000-0  57646-4 0  9993,2 53819  53.2168 154.2794 0001290  89.7650 270.3490 15.08856992 64167,6917.828,95.436,540.586,538.801,0.0
53819.0,STARLINK-4738,PAYLOAD,2023-11-12 06:05:01,15.08848717,0.0001327,53.2169,153.0881,87.7437,272.3707,6.5575e-07,-2.77e-06,0.0,0 STARLINK-4738,1 53819U 22114B   23316.25348635 -.00000277  00000-0  65575-6 0  9998,2 53819  53.2169 153.0881 0001327  87.7437 272.3707 15.08848717 64208,6917.854,95.437,540.637,538.801,0.0
53819.0,STARLINK-4738,PAYLOAD,2023-11-12 18:48:07,15.08837159,0.0001407,53.217,150.7113,87.9824,272.1329,3.0513e-05,1.98e-06,0.0,0 STARLINK-4738,1 53819U 22114B   23316.78341510  .00000198  00000-0  30513-4 0  9994,2 53819  53.2170 150.7113 0001407  87.9824 272.1329 15.08837159 64287,6917.889,95.438,540.727,538.781,0.0
53819.0,STARLINK-4738,PAYLOAD,2023-11-12 20:23:30,15.0883809,0.0001337,53.2168,150.4146,92.2077,267.9068,3.2697e-05,2.32e-06,0.0,0 STARLINK-4738,1 53819U 22114B   23316.84965395  .00000232  00000-0  32697-4 0  9998,2 53819  53.2168 150.4146 0001337  92.2077 267.9068 15.08838090 64836,6917.886,95.438,540.676,538.826,0.0
53819.0,STARLINK-4738,PAYLOAD,2023-11-13 12:17:21,15.08841078,0.0001344,53.2166,147.4412,93.7561,266.3585,7.2124e-05,8.6e-06,0.0,0 STARLINK-4738,1 53819U 22114B   23317.51205190  .00000860  00000-0  72124-4 0  9999,2 53819  53.2166 147.4412 0001344  93.7561 266.3585 15.08841078 64936,6917.877,95.437,540.672,538.812,0.0
53819.0,STARLINK-4738,PAYLOAD,2023-11-14 12:08:08,15.08836066,0.0001395,53.2161,142.9809,90.8769,269.2383,0.000106,1.399e-05,0.0,0 STARLINK-4738,1 53819U 22114B   23318.50565391  .00001399  00000-0  10600-3 0  9999,2 53819  53.2161 142.9809 0001395  90.8769 269.2383 15.08836066 64541,6917.892,95.438,540.722,538.792,0.0
53819.0,STARLINK-4738,PAYLOAD,2023-11-14 18:29:41,15.08836752,0.0001356,53.2168,141.7911,93.0018,267.1129,0.00013761,1.903e-05,0.0,0 STARLINK-4738,1 53819U 22114B   23318.77061571  .00001903  00000-0  13761-3 0  9991,2 53819  53.2168 141.7911 0001356  93.0018 267.1129 15.08836752 65120,6917.89,95.438,540.693,538.817,0.0
53819.0,STARLINK-4738,PAYLOAD,2023-11-15 11:58:55,15.08839729,0.0001414,53.2141,138.5188,91.8671,268.2483,0.00011858,1.6e-05,0.0,0 STARLINK-4738,1 53819U 22114B   23319.49925465  .00001600  00000-0  11858-3 0  9991,2 53819  53.2141 138.5188 0001414  91.8671 268.2483 15.08839729 65231,6917.881,95.438,540.724,538.768,0.0
53819.0,STARLINK-4738,PAYLOAD,2023-11-15 18:20:27,15.08842782,0.0001377,53.215,137.3294,93.3974,266.7176,0.00012474,1.698e-05,0.0,0 STARLINK-4738,1 53819U 22114B   23319.76421290  .00001698  00000-0  12474-3 0  9990,2 53819  53.2150 137.3294 0001377  93.3974 266.7176 15.08842782 64736,6917.872,95.437,540.689,538.784,0.0
53819.0,STARLINK-4738,PAYLOAD,2023-11-16 11:49:42,15.08837112,0.0001234,53.2141,134.0575,95.5184,264.5949,8.3249e-05,1.037e-05,0.0,0 STARLINK-4738,1 53819U 22114B   23320.49285790  .00001037  00000-0  83249-4 0  9991,2 53819  53.2141 134.0575 0001234  95.5184 264.5949 15.08837112 64848,6917.889,95.438,540.608,538.901,0.0
53819.0,STARLINK-4738,PAYLOAD,2023-11-16 18:11:15,15.08835474,0.0001272,53.2145,132.8682,94.6652,265.4485,5.5858e-05,6.01e-06,0.0,0 STARLINK-4738,1 53819U 22114B   23320.75781983  .00000601  00000-0  55858-4 0  9996,2 53819  53.2145 132.8682 0001272  94.6652 265.4485 15.08835474 65428,6917.894,95.438,540.639,538.879,0.0
53819.0,STARLINK-4738,PAYLOAD,2023-11-17 11:40:29,15.08840054,0.0001559,53.2148,129.5984,93.0921,267.0249,7.5545e-05,9.14e-06,0.0,0 STARLINK-4738,1 53819U 22114B   23321.48645734  .00000914  00000-0  75545-4 0  9992,2 53819  53.2148 129.5984 0001559  93.0921 267.0249 15.08840054 65537,6917.88,95.438,540.824,538.667,0.0
53819.0,STARLINK-4738,PAYLOAD,2023-11-17 18:02:02,15.08841776,0.0001556,53.2147,128.4087,94.0416,266.0754,8.429e-05,1.054e-05,0.0,0 STARLINK-4738,1 53819U 22114B   23321.75141576  .00001054  00000-0  84290-4 0  9990,2 53819  53.2147 128.4087 0001556  94.0416 266.0754 15.08841776 65032,6917.875,95.437,540.816,538.664,0.0
53819.0,STARLINK-4738,PAYLOAD,2023-11-17 21:12:48,15.08841675,0.0001499,53.216,127.8147,93.7071,266.4092,7.4401e-05,8.96e-06,0.0,0 STARLINK-4738,1 53819U 22114B   23321.88389584  .00000896  00000-0  74401-4 0  9993,2 53819  53.2160 127.8147 0001499  93.7071 266.4092 15.08841675 65594,6917.875,95.437,540.777,538.703,0.0
53819.0,STARLINK-4738,PAYLOAD,2023-11-18 11:31:16,15.08839605,0.0001488,53.2165,125.138,93.8062,266.31,0.00011459,1.536e-05,0.0,0 STARLINK-4738,1 53819U 22114B   23322.48005709  .00001536  00000-0  11459-3 0  9999,2 53819  53.2165 125.1380 0001488  93.8062 266.3100 15.08839605 65687,6917.882,95.438,540.776,538.717,0.0
53819.0,STARLINK-4738,PAYLOAD,2023-11-18 17:52:49,15.08841856,0.0001478,53.2163,123.9485,93.5184,266.5977,0.00012657,1.727e-05,0.0,0 STARLINK-4738,1 53819U 22114B   23322.74501540  .00001727  00000-0  12657-3 0  9995,2 53819  53.2163 123.9485 0001478  93.5184 266.5977 15.08841856 65728,6917.875,95.437,540.762,538.717,0.0
53819.0,STARLINK-4738,PAYLOAD,2023-11-19 11:22:04,15.0884042,0.0001262,53.2138,120.6769,90.755,269.3587,5.7651e-05,6.3e-06,0.0,0 STARLINK-4738,1 53819U 22114B   23323.47365791  .00000630  00000-0  57651-4 0  9998,2 53819  53.2138 120.6769 0001262  90.7550 269.3587 15.08840420 65292,6917.879,95.438,540.617,538.871,0.0
53819.0,STARLINK-4738,PAYLOAD,2023-11-19 17:43:36,15.08841904,0.0001298,53.2171,119.4881,89.7568,270.3573,4.4153e-05,4.15e-06,0.0,0 STARLINK-4738,1 53819U 22114B   23323.73861702  .00000415  00000-0  44153-4 0  9994,2 53819  53.2171 119.4881 0001298  89.7568 270.3573 15.08841904 65875,6917.875,95.437,540.638,538.842,0.0
